GLOBALSTAR M001 [-]     
1 25162U 98008A   23242.81091058 -.00000097  00000+0 -21956-5 0  9991
2 25162  52.0032  83.5810 0001343 346.0224  27.8243 12.38166590162407
GLOBALSTAR M004 [-]     
1 25163U 98008B   23243.46754685 -.00000073  00000+0  16916-3 0  9997
2 25163  51.9971 254.5070 0002853 273.5453 238.0316 12.63337050178909
GLOBALSTAR M002 [-]     
1 25164U 98008C   23243.05985484 -.00000099  00000+0 -43936-3 0  9997
2 25164  52.0012  85.3107 0002020  39.5693 320.5274 11.61495089107895
GLOBALSTAR M003 [-]     
1 25165U 98008D   23243.14976468  .00000028  00000+0  12581-2 0  9991
2 25165  51.9716 185.6354 0008191  53.3899 319.1942 12.11933046153769
GLOBALSTAR M014 [-]     
1 25306U 98023A   23243.35708993 -.00000072  00000+0  11116-3 0  9998
2 25306  51.9867  21.5735 0000575 174.5400 206.2063 11.65459188114693
GLOBALSTAR M006 [-]     
1 25307U 98023B   23243.45331355 -.00000074  00000+0  40680-4 0  9995
2 25307  51.9953  49.2952 0003807  22.2221   3.2092 11.58153264140963
GLOBALSTAR M015 [-]     
1 25308U 98023C   23243.13744545 -.00000056  00000+0  40196-3 0  9991
2 25308  51.9811 118.4996 0012762 353.6946 169.6883 11.48848979119053
GLOBALSTAR M008 [-]     
1 25309U 98023D   23243.25226616 -.00000066  00000+0  23495-3 0  9993
2 25309  51.9974 299.7069 0002454 223.3134 168.6098 12.36026551157047
